{"type": "FeatureCollection", "features": [ {"type": "Feature", "properties": {"norad_id": 30674, "name": "FENGYUN 1C DEB", "group": "fengyun-1c-debris", "lat": -72.40097514907697, "lon": 169.87320434879896, "alt_km": 580.2783908134679, "timestamp": "2025-12-04T10:51:50.383413+00:00", "meta": {"OBJECT_NAME": "FENGYUN 1C DEB", "OBJECT_ID": "1999-025AQG", "EPOCH": "2025-12-03T22:20:03.457248", "MEAN_MOTION": 14.93512908, "ECCENTRICITY": 0.002403, "INCLINATION": 98.9413, "RA_OF_ASC_NODE": 139.5213, "ARG_OF_PERICENTER": 323.2865, "MEAN_ANOMALY": 36.6704, "EPHEMERIS_TYPE": 0, "CLASSIFICATION_TYPE": "U", "NORAD_CAT_ID": 30674, "ELEMENT_SET_NO": 999, "REV_AT_EPOCH": 97220, "BSTAR": 0.014216717, "MEAN_MOTION_DOT": 0.00153707, "MEAN_MOTION_DDOT": 0}, "tle": {"line1": "1 30674U 99025AQG 25337.93059557  .00153707  00000+0  14217-1 0  9996", "line2": "2 30674  98.9413 139.5213 0024030 323.2865  36.6704 14.93512908972206"}}, "geometry": {"type": "Point", "coordinates": [169.87320434879896, -72.40097514907697]}}, {"type": "Feature", "properties": {"norad_id": 30675, "name": "FENGYUN 1C DEB", "group": "fengyun-1c-debris", "lat": -20.372879110726544, "lon": -125.71308808100116, "alt_km": 767.5584890847049, "timestamp": "2025-12-04T10:51:50.383431+00:00", "meta": {"OBJECT_NAME": "FENGYUN 1C DEB", "OBJECT_ID": "1999-025AQH", "EPOCH": "2025-12-03T05:38:40.644096", "MEAN_MOTION": 14.27271943, "ECCENTRICITY": 0.0054045, "INCLINATION": 98.756, "RA_OF_ASC_NODE": 56.3491, "ARG_OF_PERICENTER": 195.8903, "MEAN_ANOMALY": 232.4451, "EPHEMERIS_TYPE": 0, "CLASSIFICATION_TYPE": "U", "NORAD_CAT_ID": 30675, "ELEMENT_SET_NO": 999, "REV_AT_EPOCH": 96756, "BSTAR": 0.0024422, "MEAN_MOTION_DOT": 6.026e-05, "MEAN_MOTION_DDOT": 0}, "tle": {"line1": "1 30675U 99025AQH 25337.23519264  .00006026  00000+0  24422-2 0  9997", "line2": "2 30675  98.7560  56.3491 0054045 195.8903 232.4451 14.27271943967563"}}, "geometry": {"type": "Point", "coordinates": [-125.71308808100116, -20.372879110726544]}}, {"type": "Feature", "properties": {"norad_id": 30676, "name": "FENGYUN 1C DEB", "group": "fengyun-1c-debris", "lat": -55.636633489063975, "lon": 177.7115456900406, "alt_km": 1192.584340573837, "timestamp": "2025-12-04T10:51:50.383441+00:00", "meta": {"OBJECT_NAME": "FENGYUN 1C DEB", "OBJECT_ID": "1999-025AQJ", "EPOCH": "2025-12-02T18:56:30.857856", "MEAN_MOTION": 13.73865098, "ECCENTRICITY": 0.04725506, "INCLINATION": 98.2658, "RA_OF_ASC_NODE": 163.9921, "ARG_OF_PERICENTER": 75.2867, "MEAN_ANOMALY": 290.0156, "EPHEMERIS_TYPE": 0, "CLASSIFICATION_TYPE": "U", "NORAD_CAT_ID": 30676, "ELEMENT_SET_NO": 999, "REV_AT_EPOCH": 93787, "BSTAR": 0.00097498076, "MEAN_MOTION_DOT": 2.025e-05, "MEAN_MOTION_DDOT": 0}, "tle": {"line1": "1 30676U 99025AQJ 25336.78924604  .00002025  00000+0  97498-3 0  9994", "line2": "2 30676  98.2658 163.9921 0472550  75.2867 290.0156 13.73865098937878"}}, "geometry": {"type": "Point", "coordinates": [177.7115456900406, -55.636633489063975]}}, {"type": "Feature", "properties": {"norad_id": 30677, "name": "FENGYUN 1C DEB", "group": "fengyun-1c-debris", "lat": -64.00884065235954, "lon": -173.44884974685874, "alt_km": 727.0142110432971, "timestamp": "2025-12-04T10:51:50.383451+00:00", "meta": {"OBJECT_NAME": "FENGYUN 1C DEB", "OBJECT_ID": "1999-025AQK", "EPOCH": "2025-12-03T02:15:14.569632", "MEAN_MOTION": 14.3802879, "ECCENTRICITY": 0.00657892, "INCLINATION": 98.2556, "RA_OF_ASC_NODE": 22.5705, "ARG_OF_PERICENTER": 233.0781, "MEAN_ANOMALY": 181.8693, "EPHEMERIS_TYPE": 0, "CLASSIFICATION_TYPE": "U", "NORAD_CAT_ID": 30677, "ELEMENT_SET_NO": 999, "REV_AT_EPOCH": 97841, "BSTAR": 0.0016956731, "MEAN_MOTION_DOT": 5.223e-05, "MEAN_MOTION_DDOT": 0}, "tle": {"line1": "1 30677U 99025AQK 25337.09391863  .00005223  00000+0  16957-2 0  9998", "line2": "2 30677  98.2556  22.5705 0065789 233.0781 181.8693 14.38028790978417"}}, "geometry": {"type": "Point", "coordinates": [-173.44884974685874, -64.00884065235954]}}, {"type": "Feature", "properties": {"norad_id": 30678, "name": "FENGYUN 1C DEB", "group": "fengyun-1c-debris", "lat": 29.994414473016477, "lon": 124.23818141913976, "alt_km": 824.2946305697924, "timestamp": "2025-12-04T10:51:50.383462+00:00", "meta": {"OBJECT_NAME": "FENGYUN 1C DEB", "OBJECT_ID": "1999-025AQL", "EPOCH": "2025-12-02T08:18:31.095072", "MEAN_MOTION": 14.23915403, "ECCENTRICITY": 0.00728239, "INCLINATION": 99.0794, "RA_OF_ASC_NODE": 296.7678, "ARG_OF_PERICENTER": 261.308, "MEAN_ANOMALY": 256.8853, "EPHEMERIS_TYPE": 0, "CLASSIFICATION_TYPE": "U", "NORAD_CAT_ID": 30678, "ELEMENT_SET_NO": 999, "REV_AT_EPOCH": 95727, "BSTAR": 0.0041348228, "MEAN_MOTION_DOT": 9.706e-05, "MEAN_MOTION_DDOT": 0}, "tle": {"line1": "1 30678U 99025AQL 25336.34619323  .00009706  00000+0  41348-2 0  9992", "line2": "2 30678  99.0794 296.7678 0072823 261.3080 256.8853 14.23915403957270"}}, "geometry": {"type": "Point", "coordinates": [124.23818141913976, 29.994414473016477]}}, {"type": "Feature", "properties": {"norad_id": 30679, "name": "FENGYUN 1C DEB", "group": "fengyun-1c-debris", "lat": 23.776884396537785, "lon": -145.54800588927225, "alt_km": 890.6241498047821, "timestamp": "2025-12-04T10:51:50.383472+00:00", "meta": {"OBJECT_NAME": "FENGYUN 1C DEB", "OBJECT_ID": "1999-025AQM", "EPOCH": "2025-12-03T20:31:32.495808", "MEAN_MOTION": 13.79696036, "ECCENTRICITY": 0.01720682, "INCLINATION": 99.3826, "RA_OF_ASC_NODE": 29.6825, "ARG_OF_PERICENTER": 102.2082, "MEAN_ANOMALY": 326.1648, "EPHEMERIS_TYPE": 0, "CLASSIFICATION_TYPE": "U", "NORAD_CAT_ID": 30679, "ELEMENT_SET_NO": 999, "REV_AT_EPOCH": 94397, "BSTAR": 0.0010294673, "MEAN_MOTION_DOT": 1.146e-05, "MEAN_MOTION_DDOT": 0}, "tle": {"line1": "1 30679U 99025AQM 25337.85523722  .00001146  00000+0  10295-2 0  9994", "line2": "2 30679  99.3826  29.6825 0172068 102.2082 326.1648 13.79696036943977"}}, "geometry": {"type": "Point", "coordinates": [-145.54800588927225, 23.776884396537785]}}, {"type": "Feature", "properties": {"norad_id": 30680, "name": "FENGYUN 1C DEB", "group": "fengyun-1c-debris", "lat": 1.7977334917556596, "lon": 20.938285077828947, "alt_km": 1305.2222320140054, "timestamp": "2025-12-04T10:51:50.383482+00:00", "meta": {"OBJECT_NAME": "FENGYUN 1C DEB", "OBJECT_ID": "1999-025AQN", "EPOCH": "2025-12-03T18:54:58.660416", "MEAN_MOTION": 13.55986196, "ECCENTRICITY": 0.03418184, "INCLINATION": 99.6291, "RA_OF_ASC_NODE": 20.5934, "ARG_OF_PERICENTER": 189.7717, "MEAN_ANOMALY": 169.6656, "EPHEMERIS_TYPE": 0, "CLASSIFICATION_TYPE": "U", "NORAD_CAT_ID": 30680, "ELEMENT_SET_NO": 999, "REV_AT_EPOCH": 92132, "BSTAR": 0.0063409958, "MEAN_MOTION_DOT": 6.424e-05, "MEAN_MOTION_DDOT": 0}, "tle": {"line1": "1 30680U 99025AQN 25337.78817894  .00006424  00000+0  63410-2 0  9995", "line2": "2 30680  99.6291  20.5934 0341818 189.7717 169.6656 13.55986196921322"}}, "geometry": {"type": "Point", "coordinates": [20.938285077828947, 1.7977334917556596]}}, {"type": "Feature", "properties": {"norad_id": 30683, "name": "FENGYUN 1C DEB", "group": "fengyun-1c-debris", "lat": 68.92513581457497, "lon": -35.85659502405529, "alt_km": 986.3083023245499, "timestamp": "2025-12-04T10:51:50.383492+00:00", "meta": {"OBJECT_NAME": "FENGYUN 1C DEB", "OBJECT_ID": "1999-025AQR", "EPOCH": "2025-12-03T13:02:27.156768", "MEAN_MOTION": 14.0032745, "ECCENTRICITY": 0.01384063, "INCLINATION": 99.4287, "RA_OF_ASC_NODE": 348.7495, "ARG_OF_PERICENTER": 249.7667, "MEAN_ANOMALY": 279.9866, "EPHEMERIS_TYPE": 0, "CLASSIFICATION_TYPE": "U", "NORAD_CAT_ID": 30683, "ELEMENT_SET_NO": 999, "REV_AT_EPOCH": 95422, "BSTAR": 0.0019123493, "MEAN_MOTION_DOT": 3.027e-05, "MEAN_MOTION_DDOT": 0}, "tle": {"line1": "1 30683U 99025AQR 25337.54336987  .00003027  00000+0  19123-2 0  9999", "line2": "2 30683  99.4287 348.7495 0138406 249.7667 279.9866 14.00327450954229"}}, "geometry": {"type": "Point", "coordinates": [-35.85659502405529, 68.92513581457497]}}, {"type": "Feature", "properties": {"norad_id": 30684, "name": "FENGYUN 1C DEB", "group": "fengyun-1c-debris", "lat": 16.284304425297915, "lon": -157.22691739975923, "alt_km": 1113.5658143693172, "timestamp": "2025-12-04T10:51:50.383502+00:00", "meta": {"OBJECT_NAME": "FENGYUN 1C DEB", "OBJECT_ID": "1999-025AQS", "EPOCH": "2025-12-01T13:31:37.536960", "MEAN_MOTION": 13.66771783, "ECCENTRICITY": 0.02336022, "INCLINATION": 99.5313, "RA_OF_ASC_NODE": 17.113, "ARG_OF_PERICENTER": 298.0542, "MEAN_ANOMALY": 59.7156, "EPHEMERIS_TYPE": 0, "CLASSIFICATION_TYPE": "U", "NORAD_CAT_ID": 30684, "ELEMENT_SET_NO": 999, "REV_AT_EPOCH": 93476, "BSTAR": 0.00093442149, "MEAN_MOTION_DOT": 8.93e-06, "MEAN_MOTION_DDOT": 0}, "tle": {"line1": "1 30684U 99025AQS 25335.56362890  .00000893  00000+0  93442-3 0  9997", "line2": "2 30684  99.5313  17.1130 0233602 298.0542  59.7156 13.66771783934763"}}, "geometry": {"type": "Point", "coordinates": [-157.22691739975923, 16.284304425297915]}}, {"type": "Feature", "properties": {"norad_id": 30686, "name": "FENGYUN 1C DEB", "group": "fengyun-1c-debris", "lat": 21.092189380313517, "lon": -5.073900113445583, "alt_km": 549.949591841948, "timestamp": "2025-12-04T10:51:50.383513+00:00", "meta": {"OBJECT_NAME": "FENGYUN 1C DEB", "OBJECT_ID": "1999-025AQU", "EPOCH": "2025-12-03T20:03:14.302080", "MEAN_MOTION": 14.7370953, "ECCENTRICITY": 0.01441982, "INCLINATION": 99.0331, "RA_OF_ASC_NODE": 170.7214, "ARG_OF_PERICENTER": 148.3019, "MEAN_ANOMALY": 337.9298, "EPHEMERIS_TYPE": 0, "CLASSIFICATION_TYPE": "U", "NORAD_CAT_ID": 30686, "ELEMENT_SET_NO": 999, "REV_AT_EPOCH": 99470, "BSTAR": 0.00141149, "MEAN_MOTION_DOT": 0.00010832, "MEAN_MOTION_DDOT": 0}, "tle": {"line1": "1 30686U 99025AQU 25337.83558220  .00010832  00000+0  14115-2 0  9998", "line2": "2 30686  99.0331 170.7214 0144198 148.3019 337.9298 14.73709530994704"}}, "geometry": {"type": "Point", "coordinates": [-5.073900113445583, 21.092189380313517]}}]}